[{"OBJECT_NAME":"HODOYOSHI-3","OBJECT_ID":"2014-033F","EPOCH":"2026-03-09T21:11:10.652352","MEAN_MOTION":14.85138877,"ECCENTRICITY":0.00320899,"INCLINATION":97.6303,"RA_OF_ASC_NODE":235.9902,"ARG_OF_PERICENTER":323.6224,"MEAN_ANOMALY":36.2811,"EPHEMERIS_TYPE":0,"CLASSIFICATION_TYPE":"U","NORAD_CAT_ID":40015,"ELEMENT_SET_NO":999,"REV_AT_EPOCH":63288,"BSTAR":0.00019822754,"MEAN_MOTION_DOT":1.659e-5,"MEAN_MOTION_DDOT":0},{"OBJECT_NAME":"SAC-D","OBJECT_ID":"2011-024A","EPOCH":"2026-03-09T22:52:48.165600","MEAN_MOTION":14.78448878,"ECCENTRICITY":0.0001994,"INCLINATION":97.983,"RA_OF_ASC_NODE":83.7212,"ARG_OF_PERICENTER":86.8507,"MEAN_ANOMALY":333.604,"EPHEMERIS_TYPE":0,"CLASSIFICATION_TYPE":"U","NORAD_CAT_ID":37673,"ELEMENT_SET_NO":999,"REV_AT_EPOCH":79312,"BSTAR":0.00018445748,"MEAN_MOTION_DOT":1.293e-5,"MEAN_MOTION_DDOT":0}]
